[{"OBJECT_NAME":"2020-061C","OBJECT_ID":"2020-061C","EPOCH":"2020-09-09T03:41:31.829568","MEAN_MOTION":15.15227909,"ECCENTRICITY":0.0005305,"INCLINATION":97.4682,"RA_OF_ASC_NODE":326.1411,"ARG_OF_PERICENTER":197.554,"MEAN_ANOMALY":162.551,"EPHEMERIS_TYPE":0,"CLASSIFICATION_TYPE":"U","NORAD_CAT_ID":46274,"ELEMENT_SET_NO":999,"REV_AT_EPOCH":91,"BSTAR":1.5525e-5,"MEAN_MOTION_DOT":2.26e-6,"MEAN_MOTION_DDOT":0},{"OBJECT_NAME":"2020-061D","OBJECT_ID":"2020-061D","EPOCH":"2020-09-09T03:37:21.586656","MEAN_MOTION":15.1595785,"ECCENTRICITY":7.58e-5,"INCLINATION":97.4642,"RA_OF_ASC_NODE":326.1419,"ARG_OF_PERICENTER":135.4381,"MEAN_ANOMALY":224.6912,"EPHEMERIS_TYPE":0,"CLASSIFICATION_TYPE":"U","NORAD_CAT_ID":46275,"ELEMENT_SET_NO":999,"REV_AT_EPOCH":91,"BSTAR":1.228e-5,"MEAN_MOTION_DOT":1.7e-6,"MEAN_MOTION_DDOT":0},{"OBJECT_NAME":"2020-061F","OBJECT_ID":"2020-061F","EPOCH":"2020-09-09T03:36:43.214688","MEAN_MOTION":15.16069364,"ECCENTRICITY":2.76e-5,"INCLINATION":97.4642,"RA_OF_ASC_NODE":326.1425,"ARG_OF_PERICENTER":149.1244,"MEAN_ANOMALY":211.0005,"EPHEMERIS_TYPE":0,"CLASSIFICATION_TYPE":"U","NORAD_CAT_ID":46277,"ELEMENT_SET_NO":999,"REV_AT_EPOCH":91,"BSTAR":1.6233e-5,"MEAN_MOTION_DOT":2.47e-6,"MEAN_MOTION_DDOT":0},{"OBJECT_NAME":"GHGSAT-C1","OBJECT_ID":"2020-061G","EPOCH":"2020-09-09T03:35:20.728608","MEAN_MOTION":15.16311071,"ECCENTRICITY":0.0001746,"INCLINATION":97.4643,"RA_OF_ASC_NODE":326.1437,"ARG_OF_PERICENTER":9.2492,"MEAN_ANOMALY":350.8773,"EPHEMERIS_TYPE":0,"CLASSIFICATION_TYPE":"U","NORAD_CAT_ID":46278,"ELEMENT_SET_NO":999,"REV_AT_EPOCH":91,"BSTAR":2.3479e-5,"MEAN_MOTION_DOT":3.89e-6,"MEAN_MOTION_DDOT":0},{"OBJECT_NAME":"STARLINK-1734","OBJECT_ID":"2020-062A","EPOCH":"2020-09-08T22:00:00.999936","MEAN_MOTION":16.15915973,"ECCENTRICITY":0.0031785,"INCLINATION":52.9966,"RA_OF_ASC_NODE":43.3067,"ARG_OF_PERICENTER":58.6134,"MEAN_ANOMALY":218.3195,"EPHEMERIS_TYPE":0,"CLASSIFICATION_TYPE":"U","NORAD_CAT_ID":46325,"ELEMENT_SET_NO":999,"REV_AT_EPOCH":211,"BSTAR":0.00010248,"MEAN_MOTION_DOT":0.00161431,"MEAN_MOTION_DDOT":1.1734e-5},{"OBJECT_NAME":"CZ-2F R\/B","OBJECT_ID":"2020-063B","EPOCH":"2020-09-08T22:03:10.711872","MEAN_MOTION":15.77511391,"ECCENTRICITY":0.0015803,"INCLINATION":50.2045,"RA_OF_ASC_NODE":41.7556,"ARG_OF_PERICENTER":314.3484,"MEAN_ANOMALY":45.6201,"EPHEMERIS_TYPE":0,"CLASSIFICATION_TYPE":"U","NORAD_CAT_ID":46390,"ELEMENT_SET_NO":999,"REV_AT_EPOCH":73,"BSTAR":7.1104e-5,"MEAN_MOTION_DOT":0.00011522,"MEAN_MOTION_DDOT":0},{"OBJECT_NAME":"CZ-2F DEB","OBJECT_ID":"2020-063C","EPOCH":"2020-09-08T17:09:57.040128","MEAN_MOTION":15.37210418,"ECCENTRICITY":0.0159921,"INCLINATION":49.9026,"RA_OF_ASC_NODE":44.3312,"ARG_OF_PERICENTER":163.3015,"MEAN_ANOMALY":197.3288,"EPHEMERIS_TYPE":0,"CLASSIFICATION_TYPE":"U","NORAD_CAT_ID":46391,"ELEMENT_SET_NO":999,"REV_AT_EPOCH":67,"BSTAR":0.001099,"MEAN_MOTION_DOT":0.00063333,"MEAN_MOTION_DDOT":0},{"OBJECT_NAME":"CZ-2F DEB","OBJECT_ID":"2020-063D","EPOCH":"2020-09-08T16:27:25.788960","MEAN_MOTION":15.47637418,"ECCENTRICITY":0.0116544,"INCLINATION":49.8675,"RA_OF_ASC_NODE":44.1513,"ARG_OF_PERICENTER":169.623,"MEAN_ANOMALY":190.702,"EPHEMERIS_TYPE":0,"CLASSIFICATION_TYPE":"U","NORAD_CAT_ID":46392,"ELEMENT_SET_NO":999,"REV_AT_EPOCH":67,"BSTAR":0.0011643,"MEAN_MOTION_DOT":0.00080707,"MEAN_MOTION_DDOT":0},{"OBJECT_NAME":"CZ-2F DEB","OBJECT_ID":"2020-063E","EPOCH":"2020-09-08T17:02:28.247424","MEAN_MOTION":15.61966934,"ECCENTRICITY":0.0107063,"INCLINATION":50.4194,"RA_OF_ASC_NODE":43.3179,"ARG_OF_PERICENTER":222.3628,"MEAN_ANOMALY":136.9129,"EPHEMERIS_TYPE":0,"CLASSIFICATION_TYPE":"U","NORAD_CAT_ID":46393,"ELEMENT_SET_NO":999,"REV_AT_EPOCH":51,"BSTAR":0.0011507,"MEAN_MOTION_DOT":0.00138715,"MEAN_MOTION_DDOT":0},{"OBJECT_NAME":"CZ-2F DEB","OBJECT_ID":"2020-063F","EPOCH":"2020-09-08T19:04:14.037024","MEAN_MOTION":15.54666715,"ECCENTRICITY":0.0114104,"INCLINATION":50.4628,"RA_OF_ASC_NODE":43.1098,"ARG_OF_PERICENTER":205.0071,"MEAN_ANOMALY":154.524,"EPHEMERIS_TYPE":0,"CLASSIFICATION_TYPE":"U","NORAD_CAT_ID":46394,"ELEMENT_SET_NO":999,"REV_AT_EPOCH":56,"BSTAR":0.0010712,"MEAN_MOTION_DOT":0.00097579,"MEAN_MOTION_DDOT":0},{"OBJECT_NAME":"2020-063G","OBJECT_ID":"2020-063G","EPOCH":"2020-09-08T20:34:34.468032","MEAN_MOTION":15.76752637,"ECCENTRICITY":0.0011892,"INCLINATION":50.207,"RA_OF_ASC_NODE":42.1142,"ARG_OF_PERICENTER":309.0052,"MEAN_ANOMALY":50.9869,"EPHEMERIS_TYPE":0,"CLASSIFICATION_TYPE":"U","NORAD_CAT_ID":46395,"ELEMENT_SET_NO":999,"REV_AT_EPOCH":72,"BSTAR":5.4437e-5,"MEAN_MOTION_DOT":8.328e-5,"MEAN_MOTION_DDOT":0},{"OBJECT_NAME":"2020-064A","OBJECT_ID":"2020-064A","EPOCH":"2020-09-09T04:51:50.673312","MEAN_MOTION":15.31798244,"ECCENTRICITY":0.032655,"INCLINATION":97.3306,"RA_OF_ASC_NODE":5.3398,"ARG_OF_PERICENTER":164.6036,"MEAN_ANOMALY":289.2895,"EPHEMERIS_TYPE":0,"CLASSIFICATION_TYPE":"U","NORAD_CAT_ID":46396,"ELEMENT_SET_NO":999,"REV_AT_EPOCH":30,"BSTAR":0,"MEAN_MOTION_DOT":-5.97e-6,"MEAN_MOTION_DDOT":1.8911e-6},{"OBJECT_NAME":"2020-064B","OBJECT_ID":"2020-064B","EPOCH":"2020-09-09T03:46:20.853120","MEAN_MOTION":15.6818258,"ECCENTRICITY":0.019736,"INCLINATION":97.2642,"RA_OF_ASC_NODE":5.3562,"ARG_OF_PERICENTER":144.2573,"MEAN_ANOMALY":305.9646,"EPHEMERIS_TYPE":0,"CLASSIFICATION_TYPE":"U","NORAD_CAT_ID":46397,"ELEMENT_SET_NO":999,"REV_AT_EPOCH":30,"BSTAR":0,"MEAN_MOTION_DOT":-6.34e-6,"MEAN_MOTION_DDOT":2.0067e-6}]
